#dP2020  2  2  0  0  0.00000000     289 d+D   IGS14 FIT AIUB
## 2091      0.00000000   300.00000000 58881 0.0000000000000
+   91   G01G02G03G04G05G06G07G08G09G10G11G12G13G14G15G16G17
+        G18G19G20G21G22G23G24G25G26G27G28G29G30G31G32R01R02
+        R03R04R05R07R08R09R11R12R13R14R15R16R17R18R19R20R21
+        R22R23R26E01E02E03E04E05E07E08E09E11E12E13E14E15E18
+        E19E21E24E25E26E27E30E31E33E36C06C07C08C09C10C11C12
+        C13C14C16J01J02J03  0  0  0  0  0  0  0  0  0  0  0
++         5  5  5  5  5  5  5  5  5  5  5  5  5  5  5  5  5
++         5  5  5  5  5  5  5  5  5  5  5  5  5  5  5  5  5
++         5  5  5  5  5  5  5  5  5  5  5  5  5  5  5  5  5
++         5  5  5  5  5  5  5  5  5  5  5  5  5  5  5  5  5
++         5  5  5  5  5  5  5  5  5  5  5 10  5  5  5  5  5
++         5  5  5  5  5  5  0  0  0  0  0  0  0  0  0  0  0
%c M  cc GPS ccc cccc cccc cccc cccc ccccc ccccc ccccc ccccc
%c cc cc ccc ccc cccc cccc cccc cccc ccccc ccccc ccccc ccccc
%f  1.2500000  1.025000000  0.00000000000  0.000000000000000
%f  0.0000000  0.000000000  0.00000000000  0.000000000000000
%i    0    0    0    0      0      0      0      0         0
%i    0    0    0    0      0      0      0      0         0
/* CODE MGEX orbits and clocks                                                  
/* of DOY 20033                                                                 
/*                                                                              
/* PCV:IGS14      OL/AL:FES2014b NONE     YN ORB:CoN CLK:CoN                    
*  2020  2  2 16 45  0.00000000
PG01 -22101.619640 -14418.647828   4094.887122   -282.258345
PG02   8580.746474  19829.001805  16146.386397   -397.475658
PG03 -13644.411170  -8099.704216  21255.730240    -85.569330
PG04 -22112.314936  -2915.767904  14446.676820    -43.212914
PG05   3317.296748  24753.720710  -8878.458730     -6.993203
PG06  -3598.767437  15498.181543  21316.133146   -198.442661
PG07 -20027.039846   -492.572558 -17386.260624   -205.720341
PG08 -13854.863774  -9575.543740 -20564.522456    -22.364426
PG09 -25261.494993   5983.293953   5605.318859   -146.626567
PG10  11514.847604 -20518.006434 -12016.112695   -231.360897
PG11 -21682.618397 -12168.112360  -9363.487770   -372.470626
PG12  11232.404615  12446.768508  20419.063129    155.611064
PG13   4971.510199  14326.016619 -21932.425159    -15.668046
PG14   9732.114864 -16527.655705  18623.050596    -34.951150
PG15  15727.269938   8730.447896 -19953.821310   -254.317473
PG16   -275.976162 -24747.537275  -9197.000044   -120.186224
PG17 -19111.711001  14480.484235  11788.087645    209.319287
PG18 -19277.175737 -17862.173713  -4660.416308      0.478407
PG19 -13162.871925  15359.367160  16924.075875   -204.075071
PG20  14567.757121 -10988.866606 -19320.213323    527.850601
PG21  18408.204851  -2808.965669 -18053.809254    -46.758090
PG22 -11953.616350 -16273.827591  17529.288126   -783.723771
PG23 -22991.975993  -1357.760827  13907.501389   -139.018214
PG24  22434.891737  14470.158964   1640.694272     -8.458984
PG25  15228.772499  -1825.266585  21426.958275    -14.448021
PG26   3922.392749 -26127.441940   1027.303569    140.200482
PG27  -2018.731377 -15032.026603 -21891.369784   -199.489172
PG28 -12195.110211  21170.825729  -9989.691977    741.673339
PG29  25538.398342  -3597.839851   6355.002747    -23.094053
PG30 -12154.800081  10123.608222 -21320.265602   -143.768584
PG31   1872.347784 -17000.367470  20163.269463    -20.607574
PG32  17910.034019 -15841.019527  11479.197070    201.850587
PR01 -11895.343464  21387.090267  -7173.085224     56.485790
PR02   3150.195768  12668.627108 -21889.757145    409.992084
PR03  14744.180989  -2888.734790 -20562.035800      9.316424
PR04  17676.847295 -16754.947713  -7552.477716     37.415987
PR05  10707.402959 -20972.334135   9785.572911     44.263386
PR07 -15052.252273   3429.639414  20350.615127    -32.758218
PR08 -17782.588092  16637.143953   7667.152973    -50.348367
PR09 -12516.298760 -20837.736507  -7828.564654    114.689520
PR11  -7866.488369   9430.574492 -22340.831084    -12.143774
PR12   2240.053706  21915.051025 -12862.472163    102.250983
PR13  11561.364995  22262.399829   4618.170441    -34.317710
PR14  13747.576727   9573.178583  19241.418649     47.698794
PR15   8173.063594  -8512.819642  22629.673072    105.810432
PR16  -2749.603591 -21987.820146  12493.605841     -1.310125
PR17  24936.531102   4863.048873   2490.792924    297.614137
PR18  21076.862275  -3169.252505 -13947.425699     23.707028
PR19   6545.238641  -9224.450900 -22855.185927    -77.134976
PR20 -14285.244951 -10768.877235 -18189.906021   -403.091573
PR21 -25046.431455  -4495.061837  -1581.711021   -102.321465
PR22 -19319.682898   4322.163587  16173.044758    -12.390128
PR23    610.523364  10632.685642  23178.035711    283.813920
PR26 -10466.559825 -10937.887115 -20504.499045   -409.633294
PE01  -3844.951431 -29343.675921    286.183975   -786.550219
PE02   3894.211246  29352.652859   -215.905911    110.010809
PE03  -2801.116483  20884.441395 -20788.429879   -261.895262
PE04 -15864.742778  -8711.452085  23422.263689   -457.902834
PE05 -20049.806801  20953.758902  -5929.151694   -408.783200
PE07  25460.732106  -8776.892289 -12291.704841   -335.487608
PE08  15997.663212   8325.526622 -23475.983719   6225.973170
PE09 -25352.541076   9059.902818  12287.219764   6168.963880
PE11 -27034.563139  -2207.273581  11875.105407   1077.134730
PE12 -24532.322451 -14868.639145  -7325.452763   5970.919310
PE13  27095.998986   2310.941933 -11669.495289    397.980960
PE14   1413.502417 -21500.965296 -24422.775156   -890.694908
PE15  24696.341206  14657.792923   7177.808489    878.672793
PE18  -2533.130076  15581.528561  17259.517355   -987.791632
PE19   4990.115704 -21473.877612  19749.328205     -1.703636
PE21   8667.891114 -22197.320764  17552.032409   -580.479405
PE24 -16341.508600   1844.745539 -24623.397634   5630.827860
PE25  -8725.026475  22125.578926 -17622.610108   -502.852770
PE26  13446.414744 -11627.132985 -23656.012196   3575.206050
PE27  16275.357503  -1945.710272  24649.039522    290.703530
PE30  14161.130533  19577.693798  17100.639212   4175.093370
PE31 -14289.942006 -19352.307080 -17238.500077   -471.557838
PE33  -7824.532526 -18407.320291 -21807.961467   -470.606878
PE36 -13597.700427  11413.131938  23700.038052    603.393585
PC06 -22460.571420  26289.844110 -24068.745973    250.959008
PC07 -12844.505718  38363.639876 -10731.984797     47.573373
PC08  -6399.819212  22212.397472  35399.482808   -103.897084
PC09  -9612.051365  26356.109447 -31347.301327    305.709050
PC10  -3757.373518  41762.516145    810.524515   -621.362068
PC11   5495.607211  14969.949320  22972.790163   -158.331501
PC12 -15773.316678  13065.526168  18983.773583    314.815785
PC13   6131.939156  29589.403339  29609.692844    243.036943
PC14  -1017.157978  23851.383096 -14381.192772    126.084480
PC16 -20631.243799  26543.332743 -25538.514290   -805.301270
PJ01 -31809.667647  26944.397705  11259.859595   -325.262064
PJ02 -19632.400102  23851.962149 -24239.914879     -1.087759
PJ03 -29660.074623  26845.717376  18288.069268     -0.315427
EOF
